{
  "53980": {
    "noradId": "53980",
    "tle": [
      "1 53980C 22125S   25341.16506944  .00011531  00000+0  72337-3 0  3413",
      "2 53980  53.2164 274.2027 0001334  81.2770  82.5231 15.08811313    11"
    ]
  },
  "53981": {
    "noradId": "53981",
    "tle": [
      "1 53981C 22125T   25341.16715278  .00015242  00000+0  95603-3 0  3410",
      "2 53981  53.2163 259.2463 0001252  92.6308  84.9509 15.08814770    14"
    ]
  },
  "53982": {
    "noradId": "53982",
    "tle": [
      "1 53982C 22125U   25341.16645833  .00016544  00000+0  10374-2 0  3417",
      "2 53982  53.2163 269.5089 0001373  90.9554 287.6799 15.08822775    18"
    ]
  },
  "53983": {
    "noradId": "53983",
    "tle": [
      "1 53983C 22125V   25341.17201389  .00456070  00000+0  21366-1 0  3417",
      "2 53983  53.2177 259.0837 0001071  95.1104 171.8216 15.18739443    10"
    ]
  },
  "53984": {
    "noradId": "53984",
    "tle": [
      "1 53984C 22125W   25341.16923611 -.00000399  00000+0 -25053-4 0  3417",
      "2 53984  53.2166 269.6159 0001305  91.9193 241.7337 15.08826733    14"
    ]
  },
  "53985": {
    "noradId": "53985",
    "tle": [
      "1 53985C 22125X   25341.16854167  .00024545  00000+0  15395-2 0  3410",
      "2 53985  53.2162 269.6983 0001508  82.3182 207.5443 15.08806162    15"
    ]
  },
  "53986": {
    "noradId": "53986",
    "tle": [
      "1 53986C 22125Y   25341.16993056  .00016542  00000+0  10376-2 0  3414",
      "2 53986  53.2163 259.1402 0001346  87.1301 145.6161 15.08812298    19"
    ]
  },
  "53988": {
    "noradId": "53988",
    "tle": [
      "1 53988C 22125AA  25341.16576389  .00012100  00000+0  75871-3 0  3410",
      "2 53988  53.2164 269.5921 0001239  91.3682 243.4270 15.08827786    19"
    ]
  },
  "53991": {
    "noradId": "53991",
    "tle": [
      "1 53991C 22125AD  25341.16437500  .00011004  00000+0  69025-3 0  3411",
      "2 53991  53.2157 259.4155 0001371  85.8359 316.5459 15.08815162    14"
    ]
  },
  "53992": {
    "noradId": "53992",
    "tle": [
      "1 53992C 22125AE  25341.16715278  .00010462  00000+0  65630-3 0  3418",
      "2 53992  53.2164 269.4666 0001209  84.7133 317.7233 15.08814004    16"
    ]
  },
  "53993": {
    "noradId": "53993",
    "tle": [
      "1 53993C 22125AF  25341.16437500  .00002837  00000+0  17771-3 0  3418",
      "2 53993  53.2168 264.2387 0001388  87.6880  67.1924 15.08868857    11"
    ]
  },
  "53994": {
    "noradId": "53994",
    "tle": [
      "1 53994C 22125AG  25341.16923611 -.00040735  00000+0 -25556-2 0  3412",
      "2 53994  53.2166 269.3411 0001296  74.7751  39.1143 15.08861904    14"
    ]
  },
  "53995": {
    "noradId": "53995",
    "tle": [
      "1 53995C 22125AH  25341.16645833  .00021598  00000+0  13555-2 0  3410",
      "2 53995  53.2167 269.4357 0001496  81.7416 337.0230 15.08786748    13"
    ]
  },
  "53996": {
    "noradId": "53996",
    "tle": [
      "1 53996C 22125AJ  25341.16437500  .00003690  00000+0  23149-3 0  3415",
      "2 53996  53.2165 269.3239 0001671  77.9920  29.4750 15.08815857    15"
    ]
  },
  "53997": {
    "noradId": "53997",
    "tle": [
      "1 53997C 22125AK  25341.16923611  .00005812  00000+0  36453-3 0  3419",
      "2 53997  53.2159 259.6901 0001408  84.4067 224.1969 15.08823986    18"
    ]
  },
  "53998": {
    "noradId": "53998",
    "tle": [
      "1 53998C 22125AL  25341.17062500  .00000394  00000+0  24682-4 0  3414",
      "2 53998  53.2163 269.2171 0001547  91.4252  90.0532 15.08829147    19"
    ]
  },
  "53999": {
    "noradId": "53999",
    "tle": [
      "1 53999C 22125AM  25341.16784722  .00007707  00000+0  48334-3 0  3415",
      "2 53999  53.2166 269.3862 0001456  81.7835   4.4700 15.08827943    17"
    ]
  },
  "54000": {
    "noradId": "54000",
    "tle": [
      "1 54000C 22125AN  25341.16854167  .00017314  00000+0  10857-2 0  3413",
      "2 54000  53.2159 259.6534 0001411  86.7430 238.1009 15.08820603    12"
    ]
  },
  "54002": {
    "noradId": "54002",
    "tle": [
      "1 54002C 22125AQ  25341.16854167  .00005595  00000+0  35089-3 0  3418",
      "2 54002  53.2164 259.2020 0001349  89.4982 115.6537 15.08825209    10"
    ]
  },
  "54003": {
    "noradId": "54003",
    "tle": [
      "1 54003C 22125AR  25341.16437500  .00003902  00000+0  24471-3 0  3410",
      "2 54003  53.2161 269.2838 0001403  90.1070  37.3558 15.08826798    11"
    ]
  },
  "54004": {
    "noradId": "54004",
    "tle": [
      "1 54004C 22125AS  25341.15326389  .00011684  00000+0  73297-3 0  3418",
      "2 54004  53.2163 269.2175 0001836  88.9554  38.2041 15.08810627    11"
    ]
  },
  "54005": {
    "noradId": "54005",
    "tle": [
      "1 54005C 22125AT  25341.17340278 -.00005676  00000+0 -35595-3 0  3419",
      "2 54005  53.2161 269.1652 0001416  93.9654 122.6165 15.08841217    14"
    ]
  },
  "54006": {
    "noradId": "54006",
    "tle": [
      "1 54006C 22125AU  25341.16923611 -.00007470  00000+0 -46864-3 0  3412",
      "2 54006  53.2159 269.0349 0001350  85.5342 188.5232 15.08826962    18"
    ]
  },
  "54007": {
    "noradId": "54007",
    "tle": [
      "1 54007C 22125AV  25341.16715278  .00003957  00000+0  24828-3 0  3411",
      "2 54007  53.2165 269.1177 0001429  78.9067 143.7931 15.08810592    14"
    ]
  },
  "54008": {
    "noradId": "54008",
    "tle": [
      "1 54008C 22125AW  25341.16506944  .00005399  00000+0  33872-3 0  3411",
      "2 54008  53.2161 259.1237 0001435  92.9968 133.3923 15.08811806    15"
    ]
  },
  "54009": {
    "noradId": "54009",
    "tle": [
      "1 54009C 22125AX  25341.16784722  .00009304  00000+0  58355-3 0  3417",
      "2 54009  53.2162 269.0748 0001397  84.9152 161.5396 15.08822397    11"
    ]
  },
  "54010": {
    "noradId": "54010",
    "tle": [
      "1 54010C 22125AY  25341.16923611  .00005462  00000+0  34272-3 0  3414",
      "2 54010  53.2160 259.0356 0001480  76.2399 212.8309 15.08810620    15"
    ]
  },
  "54011": {
    "noradId": "54011",
    "tle": [
      "1 54011C 22125AZ  25341.16645833 -.00006286  00000+0 -39415-3 0  3413",
      "2 54011  53.2160 259.6256 0001369  92.3115 241.2307 15.08845597    17"
    ]
  },
  "54012": {
    "noradId": "54012",
    "tle": [
      "1 54012C 22125BA  25341.16506944  .00013740  00000+0  86188-3 0  3413",
      "2 54012  53.2160 259.3563 0001333  92.6095  13.5785 15.08814182    13"
    ]
  },
  "54013": {
    "noradId": "54013",
    "tle": [
      "1 54013C 22125BB  25341.16784722  .00015494  00000+0  97180-3 0  3418",
      "2 54013  53.2157 259.4212 0001332  87.8522 353.3889 15.08815237    14"
    ]
  },
  "54015": {
    "noradId": "54015",
    "tle": [
      "1 54015C 22125BD  25341.17548611 -.00002605  00000+0 -16340-3 0  3417",
      "2 54015  53.2158 259.3450 0001360  89.9090  52.8686 15.08833840    10"
    ]
  },
  "54051": {
    "noradId": "54051",
    "tle": [
      "1 54051C 22136A   25341.16715278 -.00016984  00000+0 -10645-2 0  3419",
      "2 54051  53.2173  39.7169 0001374  90.1980 237.0026 15.08873668    18"
    ]
  },
  "54052": {
    "noradId": "54052",
    "tle": [
      "1 54052C 22136B   25341.17201389 -.00005464  00000+0 -34269-3 0  3414",
      "2 54052  53.2165 359.2641 0001493  86.1919 167.7807 15.08839170    10"
    ]
  },
  "54053": {
    "noradId": "54053",
    "tle": [
      "1 54053C 22136C   25341.16090278 -.00020481  00000+0 -12841-2 0  3414",
      "2 54053  53.2163  39.7060 0001289  83.9416 229.3525 15.08865786    18"
    ]
  },
  "54054": {
    "noradId": "54054",
    "tle": [
      "1 54054C 22136D   25341.17062500 -.00017778  00000+0 -11143-2 0  3412",
      "2 54054  53.2161  39.5822 0001532  75.6859 330.4426 15.08875216    14"
    ]
  },
  "54055": {
    "noradId": "54055",
    "tle": [
      "1 54055C 22136E   25341.16854167 -.00014305  00000+0 -89703-3 0  3411",
      "2 54055  53.2166  39.6317 0001404  85.0946 289.7557 15.08854157    12"
    ]
  },
  "54056": {
    "noradId": "54056",
    "tle": [
      "1 54056C 22136F   25341.16715278 -.00015915  00000+0 -99796-3 0  3412",
      "2 54056  53.2176  39.0569 0001442  89.1791 218.5028 15.08854386    19"
    ]
  },
  "54058": {
    "noradId": "54058",
    "tle": [
      "1 54058C 22136H   25341.17131944 -.00013717  00000+0 -85976-3 0  3410",
      "2 54058  53.2161  39.4618 0001300  93.1762  16.8179 15.08869379    14"
    ]
  },
  "54059": {
    "noradId": "54059",
    "tle": [
      "1 54059C 22136J   25341.16784722  .00004879  00000+0  30598-3 0  3415",
      "2 54059  53.2158  39.5168 0001335  83.4101 347.7587 15.08827640    13"
    ]
  },
  "54060": {
    "noradId": "54060",
    "tle": [
      "1 54060C 22136K   25341.16854167  .00006729  00000+0  42176-3 0  3419",
      "2 54060  53.2172   9.1204 0001450  87.6382 212.4945 15.08846997    12"
    ]
  },
  "54061": {
    "noradId": "54061",
    "tle": [
      "1 54061C 22136L   25341.17409722  .00005994  00000+0  37584-3 0  3414",
      "2 54061  53.2167   4.0509 0001435  81.3634 256.4386 15.08836757    13"
    ]
  },
  "54062": {
    "noradId": "54062",
    "tle": [
      "1 54062C 22136M   25341.16645833 -.00001769  00000+0 -11095-3 0  3416",
      "2 54062  53.2162  39.4442 0001425  84.0113  19.6486 15.08839090    11"
    ]
  },
  "54063": {
    "noradId": "54063",
    "tle": [
      "1 54063C 22136N   25341.17826389  .00079644  00000+0  46566-2 0  3410",
      "2 54063  53.2175  39.1978 0001190  86.5547 181.8188 15.11299143    18"
    ]
  },
  "54064": {
    "noradId": "54064",
    "tle": [
      "1 54064C 22136P   25341.16854167 -.00020778  00000+0 -13027-2 0  3417",
      "2 54064  53.2169 354.6453 0001416  87.1552 315.1637 15.08866157    11"
    ]
  },
  "54065": {
    "noradId": "54065",
    "tle": [
      "1 54065C 22136Q   25341.17618056 -.00008206  00000+0 -51451-3 0  3410",
      "2 54065  53.2170  39.2837 0001294  89.1267 127.4165 15.08852110    19"
    ]
  }
}